https://ssd.jpl.nasa.gov/?horizons
https://ssd.jpl.nasa.gov/horizons.cgi

Ephemeris Type [change] : 	VECTORS
Target Body [change] : 	X
Coordinate Origin [change] : 	Solar System Barycenter (SSB) [500@0]
Time Span [change] : 	Start=2018-03-06, Stop=2018-05-08, Step=2 d
Table Settings [change] : 	quantities code=2; output units=KM-S
Display/Output [change] : 	plain text

$$$$$$$$$$$$$$$$$$$$$$$$$$$$$$$$$$$$$$$$$$$$$$$$$$$$$$$$$$$$$$$$$$$$$$$$$$$$$$$$$$$$$$$$$$$$$$$$$$$$$$$$$$$$$$$$$$$$$$$$$$$$$$$$$$$
$$$$$$$$$$$$$$$$$$$$$$$$$$$$$$$$$$$$$$$$$$$$$$$$$$$$$$$$$$$$$$$$$$$$$$$$$$$$$$$$$$$$$$$$$$$$$$$$$$$$$$$$$$$$$$$$$$$$$$$$$$$$$$$$$$$
$$$$$$$$$$$$$$$$$$$$$$$$$$$$$$$$$$$$$$$$$$$$$$$$$$$$$$$$$$$$$$$$$$$$$$$$$$$$$$$$$$$$$$$$$$$$$$$$$$$$$$$$$$$$$$$$$$$$$$$$$$$$$$$$$$$
$$$$$$$$$$$$$$$$$$$$$$$$$$$$$$$$$$$$$$$$$$$$$$$$$$$$$$$$$$$$$$$$$$$$$$$$$$$$$$$$$$$$$$$$$$$$$$$$$$$$$$$$$$$$$$$$$$$$$$$$$$$$$$$$$$$

*******************************************************************************
 Revised: Jul 31, 2013         Solar System Barycenter                        0

 Dynamical point 
 ---------------
 The center of mass for the solar system. See object 10 for Sun ephemeris.
*******************************************************************************
 
 
*******************************************************************************
Ephemeris / WWW_USER Tue Mar  6 15:04:32 2018 Pasadena, USA      / Horizons    
*******************************************************************************
Target body name: Solar System Barycenter (0)     {source: DE431mx}
Center body name: Solar System Barycenter (0)     {source: DE431mx}
Center-site name: BODY CENTER
*******************************************************************************
Start time      : A.D. 2018-Mar-06 00:00:00.0000 TDB
Stop  time      : A.D. 2018-Mar-16 00:00:00.0000 TDB
Step-size       : 2880 minutes
*******************************************************************************
Center geodetic : 0.00000000,0.00000000,0.0000000 {E-lon(deg),Lat(deg),Alt(km)}
Center cylindric: 0.00000000,0.00000000,0.0000000 {E-lon(deg),Dxy(km),Dz(km)}
Center radii    : (undefined)                                                  
Output units    : KM-S                                                         
Output type     : GEOMETRIC cartesian states
Output format   : 2 (position and velocity)
Reference frame : ICRF/J2000.0                                                 
Coordinate systm: Ecliptic and Mean Equinox of Reference Epoch                 
*******************************************************************************
JDTDB
   X     Y     Z
   VX    VY    VZ
*******************************************************************************
$$SOE
2458183.500000000 = A.D. 2018-Mar-06 00:00:00.0000 TDB 
 X = 0.000000000000000E+00 Y = 0.000000000000000E+00 Z = 0.000000000000000E+00
 VX= 0.000000000000000E+00 VY= 0.000000000000000E+00 VZ= 0.000000000000000E+00
2458185.500000000 = A.D. 2018-Mar-08 00:00:00.0000 TDB 
 X = 0.000000000000000E+00 Y = 0.000000000000000E+00 Z = 0.000000000000000E+00
 VX= 0.000000000000000E+00 VY= 0.000000000000000E+00 VZ= 0.000000000000000E+00
2458187.500000000 = A.D. 2018-Mar-10 00:00:00.0000 TDB 
 X = 0.000000000000000E+00 Y = 0.000000000000000E+00 Z = 0.000000000000000E+00
 VX= 0.000000000000000E+00 VY= 0.000000000000000E+00 VZ= 0.000000000000000E+00
2458189.500000000 = A.D. 2018-Mar-12 00:00:00.0000 TDB 
 X = 0.000000000000000E+00 Y = 0.000000000000000E+00 Z = 0.000000000000000E+00
 VX= 0.000000000000000E+00 VY= 0.000000000000000E+00 VZ= 0.000000000000000E+00
2458191.500000000 = A.D. 2018-Mar-14 00:00:00.0000 TDB 
 X = 0.000000000000000E+00 Y = 0.000000000000000E+00 Z = 0.000000000000000E+00
 VX= 0.000000000000000E+00 VY= 0.000000000000000E+00 VZ= 0.000000000000000E+00
2458193.500000000 = A.D. 2018-Mar-16 00:00:00.0000 TDB 
 X = 0.000000000000000E+00 Y = 0.000000000000000E+00 Z = 0.000000000000000E+00
 VX= 0.000000000000000E+00 VY= 0.000000000000000E+00 VZ= 0.000000000000000E+00
